[{"OBJECT_NAME":"NETSAT-1","OBJECT_ID":"2020-068W","EPOCH":"2026-03-09T22:42:38.711232","MEAN_MOTION":15.32042482,"ECCENTRICITY":0.00057337,"INCLINATION":97.8751,"RA_OF_ASC_NODE":63.2583,"ARG_OF_PERICENTER":18.5877,"MEAN_ANOMALY":341.5572,"EPHEMERIS_TYPE":0,"CLASSIFICATION_TYPE":"U","NORAD_CAT_ID":46506,"ELEMENT_SET_NO":999,"REV_AT_EPOCH":30009,"BSTAR":0.00059222329,"MEAN_MOTION_DOT":0.00018269,"MEAN_MOTION_DDOT":0},{"OBJECT_NAME":"STARLINK-35129","OBJECT_ID":"2025-235V","EPOCH":"2026-03-09T17:08:49.359552","MEAN_MOTION":15.30211666,"ECCENTRICITY":0.00011276,"INCLINATION":53.1573,"RA_OF_ASC_NODE":245.2668,"ARG_OF_PERICENTER":24.1531,"MEAN_ANOMALY":335.9522,"EPHEMERIS_TYPE":0,"CLASSIFICATION_TYPE":"U","NORAD_CAT_ID":66077,"ELEMENT_SET_NO":999,"REV_AT_EPOCH":2292,"BSTAR":0.0012837578,"MEAN_MOTION_DOT":0.0003787,"MEAN_MOTION_DDOT":0}]
